[{"OBJECT_NAME":"TIANMU-1 07","OBJECT_ID":"2023-101A","EPOCH":"2026-03-06T13:47:20.454720","MEAN_MOTION":15.29118809,"ECCENTRICITY":0.00046097,"INCLINATION":97.2728,"RA_OF_ASC_NODE":118.5929,"ARG_OF_PERICENTER":142.4105,"MEAN_ANOMALY":217.7458,"EPHEMERIS_TYPE":0,"CLASSIFICATION_TYPE":"U","NORAD_CAT_ID":57399,"ELEMENT_SET_NO":999,"REV_AT_EPOCH":14596,"BSTAR":0.00029794732,"MEAN_MOTION_DOT":8.352e-5,"MEAN_MOTION_DDOT":0},{"OBJECT_NAME":"STARLINK-31876","OBJECT_ID":"2024-106S","EPOCH":"2026-03-08T02:51:52.494048","MEAN_MOTION":15.27583006,"ECCENTRICITY":7.171e-5,"INCLINATION":43.0018,"RA_OF_ASC_NODE":341.3059,"ARG_OF_PERICENTER":275.318,"MEAN_ANOMALY":84.759,"EPHEMERIS_TYPE":0,"CLASSIFICATION_TYPE":"U","NORAD_CAT_ID":59938,"ELEMENT_SET_NO":999,"REV_AT_EPOCH":10029,"BSTAR":0.00020707775,"MEAN_MOTION_DOT":5.441e-5,"MEAN_MOTION_DDOT":0}]
